0 COSMOS 1231
1 12110U 80102D   13282.49636134  .00000029  00000-0  27115-3 0  2632
2 12110 073.9913 122.9599 0037682 257.6374 113.1403 12.57064060505033
0 COSMOS 1231
1 12110U 80102D   13286.98756115 -.00000000  00000-0  98236-4 0  2657
2 12110 073.9911 116.8983 0037654 250.9628 277.6095 12.57064612505594
0 COSMOS 1231
1 12110U 80102D   13289.50300639 -.00000033  00000-0 -99851-4 0  2666
2 12110 073.9914 113.5033 0037632 247.2061 141.0229 12.57064980505910
0 COSMOS 1231
1 12110U 80102D   13291.98971964 -.00000024  00000-0 -44081-4 0  2672
2 12110 073.9918 110.1471 0037632 243.4677 234.4410 12.57064764506228
0 COSMOS 1231
1 12110U 80102D   13293.99139325 -.00000002  00000-0  85256-4 0  2687
2 12110 073.9920 107.4456 0037591 240.4863 292.8230 12.57064531506478
0 COSMOS 1231
1 12110U 80102D   13296.20576691  .00000011  00000-0  16626-3 0  2699
2 12110 073.9921 104.4569 0037601 237.1801 233.7652 12.57064376506758
